NORAD_CAT_ID,OBJECT_NAME,OBJECT_TYPE,EPOCH,MEAN_MOTION,ECCENTRICITY,INCLINATION,RA_OF_ASC_NODE,ARG_OF_PERICENTER,MEAN_ANOMALY,BSTAR,MEAN_MOTION_DOT,MEAN_MOTION_DDOT,TLE_LINE0,TLE_LINE1,TLE_LINE2,SEMIMAJOR_AXIS,PERIOD,APOGEE,PERIGEE,DECAYED
52637.0,STARLINK-3961,PAYLOAD,2024-08-10 23:36:21,15.0887254,0.0001138,53.2162,323.5709,77.2066,282.9053,0.00080361,0.00012536,0.0,0 STARLINK-3961,1 52637U 22052AR  24223.98357645  .00012536  00000-0  80361-3 0  9992,2 52637  53.2162 323.5709 0001138  77.2066 282.9053 15.08872540124594,6917.781,95.435,540.433,538.859,0.0
52637.0,STARLINK-3961,PAYLOAD,2024-08-11 07:33:18,15.08819733,0.0001658,53.2171,322.0844,104.2644,255.8533,-0.0004267,-7.069e-05,0.0,0 STARLINK-3961,1 52637U 22052AR  24224.31479425 -.00007069  00000-0 -42670-3 0  9999,2 52637  53.2171 322.0844 0001658 104.2644 255.8533 15.08819733124641,6917.942,95.439,540.954,538.66,0.0
52637.0,STARLINK-3961,PAYLOAD,2024-08-11 15:30:13,15.08844642,0.000166,53.2163,320.5973,104.815,255.3026,0.00012875,1.762e-05,0.0,0 STARLINK-3961,1 52637U 22052AR  24224.64598817  .00001762  00000-0  12875-3 0  9998,2 52637  53.2163 320.5973 0001660 104.8150 255.3026 15.08844642124693,6917.866,95.437,540.88,538.583,0.0
52637.0,STARLINK-3961,PAYLOAD,2024-08-11 23:27:07,15.08876317,6.56e-05,53.2163,319.1093,312.1788,47.9148,0.00072978,0.00011357,0.0,0 STARLINK-3961,1 52637U 22052AR  24224.97716782  .00011357  00000-0  72978-3 0  9998,2 52637  53.2163 319.1093 0000656 312.1788  47.9148 15.08876317124745,6917.769,95.435,540.088,539.181,0.0
52637.0,STARLINK-3961,PAYLOAD,2024-08-12 10:34:50,15.08845849,0.0002224,53.2171,317.0264,93.465,266.6597,0.00014015,1.943e-05,0.0,0 STARLINK-3961,1 52637U 22052AR  24225.44086568  .00001943  00000-0  14015-3 0  9991,2 52637  53.2171 317.0264 0002224  93.4650 266.6597 15.08845849124813,6917.863,95.437,541.266,538.189,0.0
52637.0,STARLINK-3961,PAYLOAD,2024-08-12 15:20:59,15.08875001,0.0001573,53.2161,316.1342,74.1215,285.9951,0.0010883,0.00017091,0.0,0 STARLINK-3961,1 52637U 22052AR  24225.63957672  .00017091  00000-0  10883-2 0  9994,2 52637  53.2161 316.1342 0001573  74.1215 285.9951 15.08875001124842,6917.773,95.435,540.727,538.55,0.0
52637.0,STARLINK-3961,PAYLOAD,2024-08-13 12:01:00,15.08827574,0.0001427,53.214,312.2707,78.5937,281.5215,-0.00083192,-0.00013499,0.0,0 STARLINK-3961,1 52637U 22052AR  24226.50069665 -.00013499  00000-0 -83192-3 0  9991,2 52637  53.2140 312.2707 0001427  78.5937 281.5215 15.08827574124979,6917.918,95.438,540.771,538.796,0.0
52637.0,STARLINK-3961,PAYLOAD,2024-08-13 15:11:46,15.08820443,0.0001003,53.2167,311.6789,61.0548,299.0545,-0.00093674,-0.00015157,0.0,0 STARLINK-3961,1 52637U 22052AR  24226.63317914 -.00015157  00000-0 -93674-3 0  9997,2 52637  53.2167 311.6789 0001003  61.0548 299.0545 15.08820443125425,6917.94,95.439,540.499,539.111,0.0
52637.0,STARLINK-3961,PAYLOAD,2024-08-13 23:08:43,15.08808029,0.0001064,53.2158,310.1913,77.4914,282.6197,-0.00019559,-3.396e-05,0.0,0 STARLINK-3961,1 52637U 22052AR  24226.96438920 -.00003396  00000-0 -19559-3 0  9996,2 52637  53.2158 310.1913 0001064  77.4914 282.6197 15.08808029125048,6917.978,95.44,540.579,539.107,0.0
52637.0,STARLINK-3961,PAYLOAD,2024-08-14 11:51:48,15.08827976,0.0001233,53.2134,307.8094,88.0171,272.0962,0.0009674,0.00015137,0.0,0 STARLINK-3961,1 52637U 22052AR  24227.49431685  .00015137  00000-0  96740-3 0  9997,2 52637  53.2134 307.8094 0001233  88.0171 272.0962 15.08827976125120,6917.917,95.438,540.635,538.929,0.0
52637.0,STARLINK-3961,PAYLOAD,2024-08-14 22:59:30,15.08856064,0.0001274,53.2139,305.7286,86.7677,273.3461,0.0013576,0.00021394,0.0,0 STARLINK-3961,1 52637U 22052AR  24227.95799370  .00021394  00000-0  13576-2 0  9993,2 52637  53.2139 305.7286 0001274  86.7677 273.3461 15.08856064125191,6917.831,95.437,540.578,538.815,0.0
52637.0,STARLINK-3961,PAYLOAD,2024-08-15 11:42:35,15.08841842,0.0001403,53.215,303.3496,98.1207,261.9944,0.00041615,6.342e-05,0.0,0 STARLINK-3961,1 52637U 22052AR  24228.48791603  .00006342  00000-0  41615-3 0  9995,2 52637  53.2150 303.3496 0001403  98.1207 261.9944 15.08841842125705,6917.875,95.437,540.71,538.769,0.0
52637.0,STARLINK-3961,PAYLOAD,2024-08-16 09:57:59,15.08845633,0.0001451,53.216,299.1838,104.0278,256.0875,0.00037092,5.621e-05,0.0,0 STARLINK-3961,1 52637U 22052AR  24229.41527495  .00005621  00000-0  37092-3 0  9998,2 52637  53.2160 299.1838 0001451 104.0278 256.0875 15.08845633125414,6917.863,95.437,540.732,538.724,0.0
52637.0,STARLINK-3961,PAYLOAD,2024-08-17 05:02:37,15.08839826,0.000152,53.2163,295.6155,105.0972,255.0188,0.00010765,1.426e-05,0.0,0 STARLINK-3961,1 52637U 22052AR  24230.21015646  .00001426  00000-0  10765-3 0  9995,2 52637  53.2163 295.6155 0001520 105.0972 255.0188 15.08839826125535,6917.881,95.438,540.797,538.694,0.0
52637.0,STARLINK-3961,PAYLOAD,2024-08-17 08:13:23,15.08834926,0.0001475,53.2162,295.0209,105.6112,254.5043,1.8039e-05,-1e-08,0.0,0 STARLINK-3961,1 52637U 22052AR  24230.34263858 -.00000001  00000-0  18039-4 0  9991,2 52637  53.2162 295.0209 0001475 105.6112 254.5043 15.08834926125988,6917.896,95.438,540.781,538.741,0.0
52637.0,STARLINK-3961,PAYLOAD,2024-08-18 04:53:24,15.08842198,0.0001261,53.2162,291.155,95.9663,264.1472,0.00013524,1.865e-05,0.0,0 STARLINK-3961,1 52637U 22052AR  24231.20375679  .00001865  00000-0  13524-3 0  9993,2 52637  53.2162 291.1550 0001261  95.9663 264.1472 15.08842198126118,6917.874,95.437,540.611,538.866,0.0
52637.0,STARLINK-3961,PAYLOAD,2024-08-18 09:39:33,15.08846561,0.0001409,53.2161,290.2628,105.9582,254.1565,0.00018853,2.714e-05,0.0,0 STARLINK-3961,1 52637U 22052AR  24231.40247383  .00002714  00000-0  18853-3 0  9999,2 52637  53.2161 290.2628 0001409 105.9582 254.1565 15.08846561125714,6917.86,95.437,540.7,538.751,0.0
52637.0,STARLINK-3961,PAYLOAD,2024-08-18 19:11:51,15.08857395,0.0001343,53.2157,288.4785,101.2426,258.8717,0.00030322,4.543e-05,0.0,0 STARLINK-3961,1 52637U 22052AR  24231.79990614  .00004543  00000-0  30322-3 0  9990,2 52637  53.2157 288.4785 0001343 101.2426 258.8717 15.08857395125778,6917.827,95.436,540.621,538.763,0.0
52637.0,STARLINK-3961,PAYLOAD,2024-08-19 09:30:21,15.08830367,0.0001396,53.2157,285.8036,91.5613,268.5539,-9.7324e-05,-1.836e-05,0.0,0 STARLINK-3961,1 52637U 22052AR  24232.39607988 -.00001836  00000-0 -97324-4 0  9996,2 52637  53.2157 285.8036 0001396  91.5613 268.5539 15.08830367125865,6917.91,95.438,540.741,538.809,0.0
52637.0,STARLINK-3961,PAYLOAD,2024-08-19 14:16:30,15.0883394,0.0001616,53.2166,284.9116,76.3682,283.749,-4.0091e-06,-3.52e-06,0.0,0 STARLINK-3961,1 52637U 22052AR  24232.59480098 -.00000352  00000-0 -40091-5 0  9991,2 52637  53.2166 284.9116 0001616  76.3682 283.7490 15.08833940126323,6917.899,95.438,540.882,538.646,0.0
52637.0,STARLINK-3961,PAYLOAD,2024-08-20 02:59:35,15.08841495,0.0001612,53.2165,282.5331,73.9766,286.1404,0.00010561,1.393e-05,0.0,0 STARLINK-3961,1 52637U 22052AR  24233.12471959  .00001393  00000-0  10561-3 0  9998,2 52637  53.2165 282.5331 0001612  73.9766 286.1404 15.08841495125973,6917.876,95.437,540.856,538.626,0.0
52637.0,STARLINK-3961,PAYLOAD,2024-08-20 10:56:30,15.0885956,0.0001299,53.2147,281.0422,109.6553,250.4579,0.00097994,0.0001535,0.0,0 STARLINK-3961,1 52637U 22052AR  24233.45591247  .00015350  00000-0  97994-3 0  9990,2 52637  53.2147 281.0422 0001299 109.6553 250.4579 15.08859560126026,6917.821,95.436,540.584,538.787,0.0
52637.0,STARLINK-3961,PAYLOAD,2024-08-21 09:11:54,15.08853345,0.0001334,53.2141,276.8842,141.4901,218.6186,0.00034299,5.177e-05,0.0,0 STARLINK-3961,1 52637U 22052AR  24234.38326968  .00005177  00000-0  34299-3 0  9994,2 52637  53.2141 276.8842 0001334 141.4901 218.6186 15.08853345126169,6917.84,95.437,540.627,538.782,0.0
52637.0,STARLINK-3961,PAYLOAD,2024-08-21 20:19:36,15.08839783,0.0001126,53.2139,274.8023,78.2624,281.8495,0.00016539,2.345e-05,0.0,0 STARLINK-3961,1 52637U 22052AR  24234.84695561  .00002345  00000-0  16539-3 0  9994,2 52637  53.2139 274.8023 0001126  78.2624 281.8495 15.08839783126236,6917.881,95.438,540.525,538.967,0.0
